$$SOE
2459580.500000000, A.D. 2022-Jan-01 00:00:00.0000, 1.388713711437590E+08, -4.582818953900557E+08, -5.905599465808907E+07,
2459587.500000000, A.D. 2022-Jan-08 00:00:00.0000, 1.472860349503681E+08, -4.548936868539581E+08, -5.810479379045582E+07,
2459594.500000000, A.D. 2022-Jan-15 00:00:00.0000, 1.556367685511780E+08, -4.513078128682280E+08, -5.712833974865818E+07,
2459601.500000000, A.D. 2022-Jan-22 00:00:00.0000, 1.639195838520497E+08, -4.475247710543109E+08, -5.612692300182101E+07,
2459608.500000000, A.D. 2022-Jan-29 00:00:00.0000, 1.721304643013049E+08, -4.435451062936388E+08, -5.510084274069312E+07,
2459615.500000000, A.D. 2022-Feb-05 00:00:00.0000, 1.802653616437862E+08, -4.393694131073072E+08, -5.405040703508291E+07,
2459622.500000000, A.D. 2022-Feb-12 00:00:00.0000, 1.883201948723403E+08, -4.349983392061940E+08, -5.297593328989273E+07,
2459629.500000000, A.D. 2022-Feb-19 00:00:00.0000, 1.962908500556374E+08, -4.304325878462816E+08, -5.187774868517947E+07,
2459636.500000000, A.D. 2022-Feb-26 00:00:00.0000, 2.041731797344837E+08, -4.256729197160660E+08, -5.075619053959051E+07,
2459643.500000000, A.D. 2022-Mar-05 00:00:00.0000, 2.119630020495800E+08, -4.207201549765806E+08, -4.961160666276285E+07,
2459650.500000000, A.D. 2022-Mar-12 00:00:00.0000, 2.196560998265482E+08, -4.155751755233651E+08, -4.844435572298828E+07,
2459657.500000000, A.D. 2022-Mar-19 00:00:00.0000, 2.272482196935459E+08, -4.102389274459009E+08, -4.725480763495672E+07,
2459664.500000000, A.D. 2022-Mar-26 00:00:00.0000, 2.347350712584667E+08, -4.047124236937878E+08, -4.604334397066814E+07,
2459671.500000000, A.D. 2022-Apr-02 00:00:00.0000, 2.421123264188446E+08, -3.989967470086317E+08, -4.481035840484086E+07,
2459678.500000000, A.D. 2022-Apr-09 00:00:00.0000, 2.493756190829419E+08, -3.930930531203862E+08, -4.355625721994975E+07,
2459685.500000000, A.D. 2022-Apr-16 00:00:00.0000, 2.565205456663587E+08, -3.870025735588440E+08, -4.228145985078812E+07,
2459692.500000000, A.D. 2022-Apr-23 00:00:00.0000, 2.635426651022801E+08, -3.807266170016341E+08, -4.098639926401150E+07,
2459699.500000000, A.D. 2022-Apr-30 00:00:00.0000, 2.704374965013272E+08, -3.742665714087164E+08, -3.967152218480144E+07,
2459706.500000000, A.D. 2022-May-07 00:00:00.0000, 2.772005175300530E+08, -3.676239089199814E+08, -3.833728961286590E+07,
2459713.500000000, A.D. 2022-May-14 00:00:00.0000, 2.838271649050845E+08, -3.608001904808515E+08, -3.698417750690481E+07,
2459720.500000000, A.D. 2022-May-21 00:00:00.0000, 2.903128349801239E+08, -3.537970694403438E+08, -3.561267738913192E+07,
2459727.500000000, A.D. 2022-May-28 00:00:00.0000, 2.966528839562511E+08, -3.466162950826489E+08, -3.422329690415578E+07,
2459734.500000000, A.D. 2022-Jun-04 00:00:00.0000, 3.028426280038629E+08, -3.392597164071373E+08, -3.281656038320826E+07,
2459741.500000000, A.D. 2022-Jun-11 00:00:00.0000, 3.088773434540741E+08, -3.317292861577191E+08, -3.139300942694259E+07,
2459748.500000000, A.D. 2022-Jun-18 00:00:00.0000, 3.147522671122286E+08, -3.240270650926146E+08, -2.995320350935014E+07,
2459755.500000000, A.D. 2022-Jun-25 00:00:00.0000, 3.204625967367149E+08, -3.161552265322167E+08, -2.849772060805942E+07,
2459762.500000000, A.D. 2022-Jul-02 00:00:00.0000, 3.260034918308421E+08, -3.081160612541242E+08, -2.702715787826076E+07,
2459769.500000000, A.D. 2022-Jul-09 00:00:00.0000, 3.313700751530836E+08, -2.999119825605228E+08, -2.554213239094520E+07,
2459776.500000000, A.D. 2022-Jul-16 00:00:00.0000, 3.365574349074852E+08, -2.915455304375336E+08, -2.404328184107967E+07,
2459783.500000000, A.D. 2022-Jul-23 00:00:00.0000, 3.415606254332613E+08, -2.830193747317332E+08, -2.253126501667210E+07,
2459790.500000000, A.D. 2022-Jul-30 00:00:00.0000, 3.463746664941927E+08, -2.743363206987410E+08, -2.100676230925284E+07,
2459797.500000000, A.D. 2022-Aug-06 00:00:00.0000, 3.509945447842539E+08, -2.654993162740531E+08, -1.947047654145227E+07,
2459804.500000000, A.D. 2022-Aug-13 00:00:00.0000, 3.554152168465810E+08, -2.565114583097318E+08, -1.792313380941553E+07,
2459811.500000000, A.D. 2022-Aug-20 00:00:00.0000, 3.596316118579894E+08, -2.473759982780714E+08, -1.636548423534824E+07,
2459818.500000000, A.D. 2022-Aug-27 00:00:00.0000, 3.636386343695897E+08, -2.380963481649457E+08, -1.479830269370137E+07,
2459825.500000000, A.D. 2022-Sep-03 00:00:00.0000, 3.674311672753112E+08, -2.286760866576819E+08, -1.322238954048213E+07,
2459832.500000000, A.D. 2022-Sep-10 00:00:00.0000, 3.710040751242260E+08, -2.191189655963290E+08, -1.163857134954976E+07,
2459839.500000000, A.D. 2022-Sep-17 00:00:00.0000, 3.743522078336639E+08, -2.094289166815957E+08, -1.004770165611340E+07,
2459846.500000000, A.D. 2022-Sep-24 00:00:00.0000, 3.774704048922051E+08, -1.996100584804969E+08, -8.450661714296818E+06,
2459853.500000000, A.D. 2022-Oct-01 00:00:00.0000, 3.803535003216842E+08, -1.896667037397636E+08, -6.848361289516836E+06,
2459860.500000000, A.D. 2022-Oct-08 00:00:00.0000, 3.829963288363511E+08, -1.796033664695483E+08, -5.241739476855233E+06,
2459867.500000000, A.D. 2022-Oct-15 00:00:00.0000, 3.853937323014222E+08, -1.694247675813701E+08, -3.631765357797638E+06,
2459874.500000000, A.D. 2022-Oct-22 00:00:00.0000, 3.875405643439078E+08, -1.591358407466559E+08, -2.019438428160116E+06,
2459881.500000000, A.D. 2022-Oct-29 00:00:00.0000, 3.894316956452448E+08, -1.487417410472114E+08, -4.057892332977280E+05,
2459888.500000000, A.D. 2022-Nov-05 00:00:00.0000, 3.910620220473451E+08, -1.382478536482686E+08, 1.208119826349139E+06,
2459895.500000000, A.D. 2022-Nov-12 00:00:00.0000, 3.924264735422292E+08, -1.276598011952813E+08, 2.821193809401855E+06,
2459902.500000000, A.D. 2022-Nov-19 00:00:00.0000, 3.935200234615305E+08, -1.169834508536076E+08, 4.432304662330866E+06,
2459909.500000000, A.D. 2022-Nov-26 00:00:00.0000, 3.943376981634334E+08, -1.062249213488948E+08, 6.040290713962846E+06,
2459916.500000000, A.D. 2022-Dec-03 00:00:00.0000, 3.948745874180815E+08, -9.539058997514035E+07, 7.643956227865279E+06,
2459923.500000000, A.D. 2022-Dec-10 00:00:00.0000, 3.951258555715510E+08, -8.448709950193262E+07, 9.242071019072544E+06,
2459930.500000000, A.D. 2022-Dec-17 00:00:00.0000, 3.950867535469124E+08, -7.352136495073116E+07, 1.083337014077279E+07,
2459937.500000000, A.D. 2022-Dec-24 00:00:00.0000, 3.947526318237859E+08, -6.250058024559610E+07, 1.241655363622500E+07,
2459944.500000000, A.D. 2022-Dec-31 00:00:00.0000, 3.941189547824079E+08, -5.143222456428263E+07, 1.399028634315840E+07,
2459951.500000000, A.D. 2023-Jan-07 00:00:00.0000, 3.931813165600979E+08, -4.032406735260162E+07, 1.555319783014773E+07,
2459958.500000000, A.D. 2023-Jan-14 00:00:00.0000, 3.919354564788108E+08, -2.918417142433264E+07, 1.710388269957000E+07,
2459965.500000000, A.D. 2023-Jan-21 00:00:00.0000, 3.903772734205087E+08, -1.802089723644164E+07, 1.864090107120560E+07,
2459972.500000000, A.D. 2023-Jan-28 00:00:00.0000, 3.885028428267758E+08, -6.842908445453585E+06, 2.016277890767713E+07,
2459979.500000000, A.D. 2023-Feb-04 00:00:00.0000, 3.863084361135391E+08, 4.340824383560169E+06, 2.166800846201882E+07,
2459986.500000000, A.D. 2023-Feb-11 00:00:00.0000, 3.837905407004603E+08, 1.552102183181604E+07, 2.315504901070162E+07,
2459993.500000000, A.D. 2023-Feb-18 00:00:00.0000, 3.809458805814540E+08, 2.668809473980765E+07, 2.462232782604305E+07,
2460000.500000000, A.D. 2023-Feb-25 00:00:00.0000, 3.777714376824418E+08, 3.783214433949967E+07, 2.606824136715789E+07,
2460007.500000000, A.D. 2023-Mar-04 00:00:00.0000, 3.742644740822768E+08, 4.894296355062594E+07, 2.749115669880340E+07,
2460014.500000000, A.D. 2023-Mar-11 00:00:00.0000, 3.704225550858132E+08, 6.001003957059303E+07, 2.888941315274978E+07,
2460021.500000000, A.D. 2023-Mar-18 00:00:00.0000, 3.662435731409528E+08, 7.102255784091076E+07, 3.026132424005810E+07,
2460028.500000000, A.D. 2023-Mar-25 00:00:00.0000, 3.617257727313049E+08, 8.196940747799970E+07, 3.160517980772388E+07,
2460035.500000000, A.D. 2023-Apr-01 00:00:00.0000, 3.568677765781668E+08, 9.283918869752412E+07, 3.291924844739843E+07,
2460042.500000000, A.D. 2023-Apr-08 00:00:00.0000, 3.516686124238978E+08, 1.036202235951569E+08, 3.420178032573048E+07,
2460049.500000000, A.D. 2023-Apr-15 00:00:00.0000, 3.461277379334339E+08, 1.143005693181175E+08, 3.545101057363940E+07,
2460056.500000000, A.D. 2023-Apr-22 00:00:00.0000, 3.402450653830791E+08, 1.248680307073717E+08, 3.666516283129034E+07,
2460063.500000000, A.D. 2023-Apr-29 00:00:00.0000, 3.340209887036163E+08, 1.353101747848384E+08, 3.784245289011240E+07,
2460070.500000000, A.D. 2023-May-06 00:00:00.0000, 3.274564109255968E+08, 1.456143489819904E+08, 3.898109274450973E+07,
2460077.500000000, A.D. 2023-May-13 00:00:00.0000, 3.205527708394444E+08, 1.557677023201080E+08, 4.007929507321230E+07,
2460084.500000000, A.D. 2023-May-20 00:00:00.0000, 3.133120688733754E+08, 1.657572091385238E+08, 4.113527808864068E+07,
2460091.500000000, A.D. 2023-May-27 00:00:00.0000, 3.057368921303644E+08, 1.755696954093860E+08, 4.214727073013026E+07,
2460098.500000000, A.D. 2023-Jun-03 00:00:00.0000, 2.978304383695139E+08, 1.851918677101738E+08, 4.311351818947598E+07,
2460105.500000000, A.D. 2023-Jun-10 00:00:00.0000, 2.895965386652740E+08, 1.946103448593134E+08, 4.403228775238405E+07,
2460112.500000000, A.D. 2023-Jun-17 00:00:00.0000, 2.810396785278174E+08, 2.038116921444549E+08, 4.490187492466255E+07,
2460119.500000000, A.D. 2023-Jun-24 00:00:00.0000, 2.721650174874861E+08, 2.127824581555483E+08, 4.572060979503213E+07,
2460126.500000000, A.D. 2023-Jul-01 00:00:00.0000, 2.629784070709024E+08, 2.215092149678178E+08, 4.648686364925887E+07,
2460133.500000000, A.D. 2023-Jul-08 00:00:00.0000, 2.534864051578452E+08, 2.299786023708736E+08, 4.719905601889294E+07,
2460140.500000000, A.D. 2023-Jul-15 00:00:00.0000, 2.436962851052404E+08, 2.381773731550526E+08, 4.785566200936966E+07,
2460147.500000000, A.D. 2023-Jul-22 00:00:00.0000, 2.336160428413395E+08, 2.460924382188602E+08, 4.845521945472947E+07,
$$EOE